start=new Date('2022-07-26T00:00:00.000Z').valueOf();
sats=[{"CLASSIFICATION_TYPE":"U","APOAPSIS":"548.272","ELEMENT_SET_NO":"999","FILE":"3521711","SEMIMAJOR_AXIS":"6925.362","EPHEMERIS_TYPE":"0","DECAY_DATE":null,"MEAN_ANOMALY":"272.6208","OBJECT_TYPE":"PAYLOAD","TLE_LINE2":"2 48102  53.0557 330.3651 0001509  87.4954 272.6208 15.06395526 73307","MEAN_MOTION_DOT":"0.00001062","MEAN_ELEMENT_THEORY":"SGP4","RA_OF_ASC_NODE":"330.3651","TLE_LINE1":"1 48102U 21027L   22206.78954967  .00001062  00000-0  90205-4 0  9993","TIME_SYSTEM":"UTC","ARG_OF_PERICENTER":"87.4954","OBJECT_NAME":"STARLINK-2437","MEAN_MOTION_DDOT":"0.0000000000000","OBJECT_ID":"2021-027L","REV_AT_EPOCH":"7330","MEAN_MOTION":"15.06395526","EPOCH":"2022-07-25T18:56:57.091488","GP_ID":"208861773","RCS_SIZE":"LARGE","ECCENTRICITY":"0.00015090","NORAD_CAT_ID":"48102","REF_FRAME":"TEME","PERIAPSIS":"546.182","INCLINATION":"53.0557","BSTAR":"0.00009020500000","SITE":"AFETR","CENTER_NAME":"EARTH","LAUNCH_DATE":"2021-04-07","PERIOD":"95.592","COUNTRY_CODE":"US"},{"APOAPSIS":"548.254","CLASSIFICATION_TYPE":"U","ELEMENT_SET_NO":"999","FILE":"3521711","EPHEMERIS_TYPE":"0","SEMIMAJOR_AXIS":"6925.368","DECAY_DATE":null,"MEAN_ANOMALY":"284.4506","OBJECT_TYPE":"PAYLOAD","TLE_LINE2":"2 48103  53.0569 330.6243 0001474  75.6647 284.4506 15.06393538 73291","MEAN_MOTION_DOT":"0.00000693","MEAN_ELEMENT_THEORY":"SGP4","RA_OF_ASC_NODE":"330.6243","TLE_LINE1":"1 48103U 21027M   22206.73332081  .00000693  00000-0  65413-4 0  9998","TIME_SYSTEM":"UTC","OBJECT_NAME":"STARLINK-2438","ARG_OF_PERICENTER":"75.6647","MEAN_MOTION_DDOT":"0.0000000000000","OBJECT_ID":"2021-027M","MEAN_MOTION":"15.06393538","REV_AT_EPOCH":"7329","EPOCH":"2022-07-25T17:35:58.917984","GP_ID":"208862525","RCS_SIZE":"LARGE","ECCENTRICITY":"0.00014740","NORAD_CAT_ID":"48103","REF_FRAME":"TEME","PERIAPSIS":"546.213","INCLINATION":"53.0569","SITE":"AFETR","BSTAR":"0.00006541300000","CENTER_NAME":"EARTH","LAUNCH_DATE":"2021-04-07","PERIOD":"95.593","COUNTRY_CODE":"US"},{"REF_FRAME":"TEME","NORAD_CAT_ID":"48104","RCS_SIZE":"LARGE","ECCENTRICITY":"0.00013580","INCLINATION":"53.0538","PERIAPSIS":"546.256","EPOCH":"2022-07-25T17:49:56.540928","REV_AT_EPOCH":"7323","MEAN_MOTION":"15.06405579","OBJECT_ID":"2021-027N","GP_ID":"208862276","PERIOD":"95.592","COUNTRY_CODE":"US","BSTAR":"0.00033090000000","SITE":"AFETR","LAUNCH_DATE":"2021-04-07","CENTER_NAME":"EARTH","MEAN_ANOMALY":"268.3786","RA_OF_ASC_NODE":"335.5697","MEAN_ELEMENT_THEORY":"SGP4","MEAN_MOTION_DOT":"0.00004651","TLE_LINE2":"2 48104  53.0538 335.5697 0001358  91.7359 268.3786 15.06405579 73239","OBJECT_TYPE":"PAYLOAD","FILE":"3521711","APOAPSIS":"548.137","ELEMENT_SET_NO":"999","CLASSIFICATION_TYPE":"U","DECAY_DATE":null,"EPHEMERIS_TYPE":"0","SEMIMAJOR_AXIS":"6925.331","MEAN_MOTION_DDOT":"0.0000000000000","TLE_LINE1":"1 48104U 21027N   22206.74301552  .00004651  00000-0  33090-3 0  9992","OBJECT_NAME":"STARLINK-2439","ARG_OF_PERICENTER":"91.7359","TIME_SYSTEM":"UTC"},{"COUNTRY_CODE":"US","PERIOD":"95.593","LAUNCH_DATE":"2021-04-07","CENTER_NAME":"EARTH","BSTAR":"-0.00018273000000","SITE":"AFETR","INCLINATION":"53.0540","PERIAPSIS":"546.423","REF_FRAME":"TEME","NORAD_CAT_ID":"48105","RCS_SIZE":"LARGE","ECCENTRICITY":"0.00012110","GP_ID":"208861024","EPOCH":"2022-07-25T17:12:08.230752","MEAN_MOTION":"15.06384408","REV_AT_EPOCH":"7399","OBJECT_ID":"2021-027P","MEAN_MOTION_DDOT":"0.0000000000000","ARG_OF_PERICENTER":"73.6896","OBJECT_NAME":"STARLINK-2440","TIME_SYSTEM":"UTC","TLE_LINE1":"1 48105U 21027P   22206.71676193 -.00003001  00000-0 -18273-3 0  9992","RA_OF_ASC_NODE":"280.6859","MEAN_ELEMENT_THEORY":"SGP4","MEAN_MOTION_DOT":"-0.00003001","OBJECT_TYPE":"PAYLOAD","TLE_LINE2":"2 48105  53.0540 280.6859 0001211  73.6896 286.4226 15.06384408 73996","MEAN_ANOMALY":"286.4226","DECAY_DATE":null,"EPHEMERIS_TYPE":"0","SEMIMAJOR_AXIS":"6925.396","FILE":"3521711","APOAPSIS":"548.100","ELEMENT_SET_NO":"999","CLASSIFICATION_TYPE":"U"},{"INCLINATION":"53.0555","PERIAPSIS":"546.353","NORAD_CAT_ID":"48106","REF_FRAME":"TEME","ECCENTRICITY":"0.00012930","RCS_SIZE":"LARGE","GP_ID":"208861274","EPOCH":"2022-07-25T18:25:07.594464","OBJECT_ID":"2021-027Q","MEAN_MOTION":"15.06388515","REV_AT_EPOCH":"7330","COUNTRY_CODE":"US","PERIOD":"95.593","LAUNCH_DATE":"2021-04-07","CENTER_NAME":"EARTH","BSTAR":"-0.00007010900000","SITE":"AFETR","MEAN_MOTION_DOT":"-0.00001325","RA_OF_ASC_NODE":"330.4691","MEAN_ELEMENT_THEORY":"SGP4","OBJECT_TYPE":"PAYLOAD","TLE_LINE2":"2 48106  53.0555 330.4691 0001293  85.6213 274.4923 15.06388515 73306","MEAN_ANOMALY":"274.4923","SEMIMAJOR_AXIS":"6925.384","EPHEMERIS_TYPE":"0","DECAY_DATE":null,"FILE":"3521711","APOAPSIS":"548.144","ELEMENT_SET_NO":"999","CLASSIFICATION_TYPE":"U","MEAN_MOTION_DDOT":"0.0000000000000","OBJECT_NAME":"STARLINK-2442","ARG_OF_PERICENTER":"85.6213","TIME_SYSTEM":"UTC","TLE_LINE1":"1 48106U 21027Q   22206.76744901 -.00001325  00000-0 -70109-4 0  9995"},{"GP_ID":"208836385","MEAN_MOTION":"15.06382188","REV_AT_EPOCH":"7290","OBJECT_ID":"2021-027R","EPOCH":"2022-07-25T18:46:20.594784","INCLINATION":"53.0569","PERIAPSIS":"546.312","RCS_SIZE":"LARGE","ECCENTRICITY":"0.00013800","REF_FRAME":"TEME","NORAD_CAT_ID":"48107","CENTER_NAME":"EARTH","LAUNCH_DATE":"2021-04-07","SITE":"AFETR","BSTAR":"-0.00014760000000","COUNTRY_CODE":"US","PERIOD":"95.593","DECAY_DATE":null,"SEMIMAJOR_AXIS":"6925.403","EPHEMERIS_TYPE":"0","ELEMENT_SET_NO":"999","APOAPSIS":"548.224","CLASSIFICATION_TYPE":"U","FILE":"3521550","TLE_LINE2":"2 48107  53.0569 330.3926 0001380  86.4598 273.6549 15.06382188 72904","OBJECT_TYPE":"PAYLOAD","MEAN_ELEMENT_THEORY":"SGP4","RA_OF_ASC_NODE":"330.3926","MEAN_MOTION_DOT":"-0.00002478","MEAN_ANOMALY":"273.6549","TIME_SYSTEM":"UTC","OBJECT_NAME":"STARLINK-2443","ARG_OF_PERICENTER":"86.4598","TLE_LINE1":"1 48107U 21027R   22206.78218281 -.00002478  00000-0 -14760-3 0  9995","MEAN_MOTION_DDOT":"0.0000000000000"},{"GP_ID":"208862776","EPOCH":"2022-07-25T18:07:51.333600","REV_AT_EPOCH":"7315","MEAN_MOTION":"15.06406598","OBJECT_ID":"2021-027S","INCLINATION":"53.0559","PERIAPSIS":"546.295","REF_FRAME":"TEME","NORAD_CAT_ID":"48108","ECCENTRICITY":"0.00012970","RCS_SIZE":"LARGE","LAUNCH_DATE":"2021-04-07","CENTER_NAME":"EARTH","BSTAR":"0.00024393000000","SITE":"AFETR","COUNTRY_CODE":"US","PERIOD":"95.592","DECAY_DATE":null,"SEMIMAJOR_AXIS":"6925.328","EPHEMERIS_TYPE":"0","FILE":"3521711","ELEMENT_SET_NO":"999","APOAPSIS":"548.092","CLASSIFICATION_TYPE":"U","MEAN_ELEMENT_THEORY":"SGP4","RA_OF_ASC_NODE":"340.5133","MEAN_MOTION_DOT":"0.00003354","TLE_LINE2":"2 48108  53.0559 340.5133 0001297  86.4830 273.6307 15.06406598 73155","OBJECT_TYPE":"PAYLOAD","MEAN_ANOMALY":"273.6307","ARG_OF_PERICENTER":"86.4830","OBJECT_NAME":"STARLINK-2444","TIME_SYSTEM":"UTC","TLE_LINE1":"1 48108U 21027S   22206.75545525  .00003354  00000-0  24393-3 0  9992","MEAN_MOTION_DDOT":"0.0000000000000"},{"TIME_SYSTEM":"UTC","OBJECT_NAME":"STARLINK-2445","ARG_OF_PERICENTER":"72.1843","TLE_LINE1":"1 48109U 21027T   22206.83562514 -.00000477  00000-0 -13142-4 0  9995","MEAN_MOTION_DDOT":"0.0000000000000","DECAY_DATE":null,"EPHEMERIS_TYPE":"0","SEMIMAJOR_AXIS":"6925.380","ELEMENT_SET_NO":"999","APOAPSIS":"548.137","CLASSIFICATION_TYPE":"U","FILE":"3521711","TLE_LINE2":"2 48109  53.0561 350.1465 0001288  72.1843 287.9286 15.06389715 73032","OBJECT_TYPE":"PAYLOAD","RA_OF_ASC_NODE":"350.1465","MEAN_ELEMENT_THEORY":"SGP4","MEAN_MOTION_DOT":"-0.00000477","MEAN_ANOMALY":"287.9286","CENTER_NAME":"EARTH","LAUNCH_DATE":"2021-04-07","SITE":"AFETR","BSTAR":"-0.00001314200000","COUNTRY_CODE":"US","PERIOD":"95.593","GP_ID":"208861524","MEAN_MOTION":"15.06389715","REV_AT_EPOCH":"7303","OBJECT_ID":"2021-027T","EPOCH":"2022-07-25T20:03:18.012096","INCLINATION":"53.0561","PERIAPSIS":"546.353","ECCENTRICITY":"0.00012880","RCS_SIZE":"LARGE","REF_FRAME":"TEME","NORAD_CAT_ID":"48109"},{"MEAN_MOTION_DDOT":"0.0000000000000","TLE_LINE1":"1 48110U 21027U   22206.81074984  .00000055  00000-0  22595-4 0  9996","TIME_SYSTEM":"UTC","ARG_OF_PERICENTER":"81.5000","OBJECT_NAME":"STARLINK-2447","MEAN_ANOMALY":"278.6140","OBJECT_TYPE":"PAYLOAD","TLE_LINE2":"2 48110  53.0564 340.2583 0001336  81.5000 278.6140 15.06389929 72774","MEAN_ELEMENT_THEORY":"SGP4","RA_OF_ASC_NODE":"340.2583","MEAN_MOTION_DOT":"0.00000055","APOAPSIS":"548.170","CLASSIFICATION_TYPE":"U","ELEMENT_SET_NO":"999","FILE":"3521527","DECAY_DATE":null,"EPHEMERIS_TYPE":"0","SEMIMAJOR_AXIS":"6925.379","PERIOD":"95.593","COUNTRY_CODE":"US","SITE":"AFETR","BSTAR":"0.00002259500000","CENTER_NAME":"EARTH","LAUNCH_DATE":"2021-04-07","ECCENTRICITY":"0.00013360","RCS_SIZE":"LARGE","REF_FRAME":"TEME","NORAD_CAT_ID":"48110","PERIAPSIS":"546.319","INCLINATION":"53.0564","REV_AT_EPOCH":"7277","MEAN_MOTION":"15.06389929","OBJECT_ID":"2021-027U","EPOCH":"2022-07-25T19:27:28.786176","GP_ID":"208836695"},{"NORAD_CAT_ID":"48111","REF_FRAME":"TEME","ECCENTRICITY":"0.00013510","RCS_SIZE":"LARGE","PERIAPSIS":"546.312","INCLINATION":"53.0571","EPOCH":"2022-07-25T19:16:50.807712","OBJECT_ID":"2021-027V","MEAN_MOTION":"15.06388944","REV_AT_EPOCH":"7317","GP_ID":"208862526","PERIOD":"95.593","COUNTRY_CODE":"US","BSTAR":"0.00011613000000","SITE":"AFETR","LAUNCH_DATE":"2021-04-07","CENTER_NAME":"EARTH","MEAN_ANOMALY":"277.3404","MEAN_MOTION_DOT":"0.00001448","MEAN_ELEMENT_THEORY":"SGP4","RA_OF_ASC_NODE":"340.2674","OBJECT_TYPE":"PAYLOAD","TLE_LINE2":"2 48111  53.0571 340.2674 0001351  82.7738 277.3404 15.06388944 73172","FILE":"3521711","ELEMENT_SET_NO":"999","APOAPSIS":"548.183","CLASSIFICATION_TYPE":"U","SEMIMAJOR_AXIS":"6925.382","EPHEMERIS_TYPE":"0","DECAY_DATE":null,"MEAN_MOTION_DDOT":"0.0000000000000","TLE_LINE1":"1 48111U 21027V   22206.80336583  .00001448  00000-0  11613-3 0  9997","ARG_OF_PERICENTER":"82.7738","OBJECT_NAME":"STARLINK-2448","TIME_SYSTEM":"UTC"}];
